{
  "type": "FeatureCollection",
  "features": [
    {
      "type": "Feature",
      "properties": {
        "norad_id": 66330,
        "name": "STARLINK-35512",
        "group": "last-30-days",
        "lat": -32.12372919864656,
        "lon": -11.456146697470059,
        "alt_km": 446.65752971045094,
        "timestamp": "2025-12-04T21:36:14.650443+00:00",
        "meta_object_name": "STARLINK-35512",
        "meta_object_id": "2025-253M",
        "meta_epoch": "2025-12-04T14:00:01.000224",
        "meta_mean_motion": 15.40674129,
        "meta_eccentricity": 7.614e-05,
        "meta_inclination": 43.0005,
        "meta_ra_of_asc_node": 32.7294,
        "meta_arg_of_pericenter": 273.9418,
        "meta_mean_anomaly": 75.545,
        "meta_ephemeris_type": 0,
        "meta_classification_type": "U",
        "meta_norad_cat_id": 66330,
        "meta_element_set_no": 999,
        "meta_rev_at_epoch": 561,
        "meta_bstar": -0.0017632272,
        "meta_mean_motion_dot": -0.00073189,
        "meta_mean_motion_ddot": 0,
        "tle_line1": "1 66330U 25253M   25338.58334491 -.00073189  00000+0 -17632-2 0  9993",
        "tle_line2": "2 66330  43.0005  32.7294 0000761 273.9418  75.5450 15.40674129  5614"
      },
      "geometry": {
        "type": "Point",
        "coordinates": [
          -11.456146697470059,
          -32.12372919864656
        ]
      }
    },
    {
      "type": "Feature",
      "properties": {
        "norad_id": 66331,
        "name": "STARLINK-35257",
        "group": "last-30-days",
        "lat": 40.574906460391134,
        "lon": 143.7388574797451,
        "alt_km": 409.88826454784976,
        "timestamp": "2025-12-04T21:36:14.650454+00:00",
        "meta_object_name": "STARLINK-35257",
        "meta_object_id": "2025-253N",
        "meta_epoch": "2025-12-04T11:52:06.846816",
        "meta_mean_motion": 15.50730679,
        "meta_eccentricity": 0.00037889,
        "meta_inclination": 43.0004,
        "meta_ra_of_asc_node": 32.8876,
        "meta_arg_of_pericenter": 251.6625,
        "meta_mean_anomaly": 108.3824,
        "meta_ephemeris_type": 0,
        "meta_classification_type": "U",
        "meta_norad_cat_id": 66331,
        "meta_element_set_no": 999,
        "meta_rev_at_epoch": 565,
        "meta_bstar": 0.0028128594,
        "meta_mean_motion_dot": 0.00169226,
        "meta_mean_motion_ddot": 0,
        "tle_line1": "1 66331U 25253N   25338.49452369  .00169226  00000+0  28129-2 0  9998",
        "tle_line2": "2 66331  43.0004  32.8876 0003788 251.6625 108.3824 15.50730679  5654"
      },
      "geometry": {
        "type": "Point",
        "coordinates": [
          143.7388574797451,
          40.574906460391134
        ]
      }
    },
    {
      "type": "Feature",
      "properties": {
        "norad_id": 66332,
        "name": "STARLINK-35322",
        "group": "last-30-days",
        "lat": 23.46018819500887,
        "lon": 58.447958221478686,
        "alt_km": 440.5997007231381,
        "timestamp": "2025-12-04T21:36:14.650467+00:00",
        "meta_object_name": "STARLINK-35322",
        "meta_object_id": "2025-253P",
        "meta_epoch": "2025-12-04T14:00:01.000224",
        "meta_mean_motion": 15.4065761,
        "meta_eccentricity": 6.35e-05,
        "meta_inclination": 43.0006,
        "meta_ra_of_asc_node": 32.5176,
        "meta_arg_of_pericenter": 268.3449,
        "meta_mean_anomaly": 168.1115,
        "meta_ephemeris_type": 0,
        "meta_classification_type": "U",
        "meta_norad_cat_id": 66332,
        "meta_element_set_no": 999,
        "meta_rev_at_epoch": 561,
        "meta_bstar": 0.0013014126,
        "meta_mean_motion_dot": 0.00054371,
        "meta_mean_motion_ddot": 0,
        "tle_line1": "1 66332U 25253P   25338.58334491  .00054371  00000+0  13014-2 0  9995",
        "tle_line2": "2 66332  43.0006  32.5176 0000635 268.3449 168.1115 15.40657610  5619"
      },
      "geometry": {
        "type": "Point",
        "coordinates": [
          58.447958221478686,
          23.46018819500887
        ]
      }
    },
    {
      "type": "Feature",
      "properties": {
        "norad_id": 66333,
        "name": "STARLINK-35400",
        "group": "last-30-days",
        "lat": 42.36591266130342,
        "lon": 132.35376180652372,
        "alt_km": 418.33862088264414,
        "timestamp": "2025-12-04T21:36:14.650478+00:00",
        "meta_object_name": "STARLINK-35400",
        "meta_object_id": "2025-253Q",
        "meta_epoch": "2025-12-04T14:59:04.724736",
        "meta_mean_motion": 15.48022109,
        "meta_eccentricity": 0.00018156,
        "meta_inclination": 42.9982,
        "meta_ra_of_asc_node": 32.1411,
        "meta_arg_of_pericenter": 246.9624,
        "meta_mean_anomaly": 113.1044,
        "meta_ephemeris_type": 0,
        "meta_classification_type": "U",
        "meta_norad_cat_id": 66333,
        "meta_element_set_no": 999,
        "meta_rev_at_epoch": 567,
        "meta_bstar": -0.017406725,
        "meta_mean_motion_dot": -0.00851223,
        "meta_mean_motion_ddot": 0,
        "tle_line1": "1 66333U 25253Q   25338.62436024 -.00851223  00000+0 -17407-1 0  9998",
        "tle_line2": "2 66333  42.9982  32.1411 0001815 246.9624 113.1044 15.48022109  5671"
      },
      "geometry": {
        "type": "Point",
        "coordinates": [
          132.35376180652372,
          42.36591266130342
        ]
      }
    },
    {
      "type": "Feature",
      "properties": {
        "norad_id": 66334,
        "name": "STARLINK-35407",
        "group": "last-30-days",
        "lat": -9.47917931878156,
        "lon": 20.490726717050727,
        "alt_km": 445.0868729900294,
        "timestamp": "2025-12-04T21:36:14.650488+00:00",
        "meta_object_name": "STARLINK-35407",
        "meta_object_id": "2025-253R",
        "meta_epoch": "2025-12-04T14:00:01.000224",
        "meta_mean_motion": 15.40528115,
        "meta_eccentricity": 0.00018536,
        "meta_inclination": 43.0004,
        "meta_ra_of_asc_node": 32.6384,
        "meta_arg_of_pericenter": 254.542,
        "meta_mean_anomaly": 132.3071,
        "meta_ephemeris_type": 0,
        "meta_classification_type": "U",
        "meta_norad_cat_id": 66334,
        "meta_element_set_no": 999,
        "meta_rev_at_epoch": 561,
        "meta_bstar": 0.0046062357,
        "meta_mean_motion_dot": 0.00196015,
        "meta_mean_motion_ddot": 0,
        "tle_line1": "1 66334U 25253R   25338.58334491  .00196015  00000+0  46062-2 0  9998",
        "tle_line2": "2 66334  43.0004  32.6384 0001853 254.5420 132.3071 15.40528115  5611"
      },
      "geometry": {
        "type": "Point",
        "coordinates": [
          20.490726717050727,
          -9.47917931878156
        ]
      }
    },
    {
      "type": "Feature",
      "properties": {
        "norad_id": 66335,
        "name": "STARLINK-35417",
        "group": "last-30-days",
        "lat": -42.95874835796475,
        "lon": -56.77482008581886,
        "alt_km": 445.973852785949,
        "timestamp": "2025-12-04T21:36:14.650499+00:00",
        "meta_object_name": "STARLINK-35417",
        "meta_object_id": "2025-253S",
        "meta_epoch": "2025-12-04T12:39:05.399712",
        "meta_mean_motion": 15.40748615,
        "meta_eccentricity": 0.00015351,
        "meta_inclination": 43.0008,
        "meta_ra_of_asc_node": 33.1389,
        "meta_arg_of_pericenter": 260.139,
        "meta_mean_anomaly": 99.9293,
        "meta_ephemeris_type": 0,
        "meta_classification_type": "U",
        "meta_norad_cat_id": 66335,
        "meta_element_set_no": 999,
        "meta_rev_at_epoch": 565,
        "meta_bstar": 0.0028891709,
        "meta_mean_motion_dot": 0.00122539,
        "meta_mean_motion_ddot": 0,
        "tle_line1": "1 66335U 25253S   25338.52714583  .00122539  00000+0  28892-2 0  9998",
        "tle_line2": "2 66335  43.0008  33.1389 0001535 260.1390  99.9293 15.40748615  5650"
      },
      "geometry": {
        "type": "Point",
        "coordinates": [
          -56.77482008581886,
          -42.95874835796475
        ]
      }
    },
    {
      "type": "Feature",
      "properties": {
        "norad_id": 66336,
        "name": "STARLINK-35404",
        "group": "last-30-days",
        "lat": 40.110518853009,
        "lon": 145.81372779387775,
        "alt_km": 409.33014065098087,
        "timestamp": "2025-12-04T21:36:14.650509+00:00",
        "meta_object_name": "STARLINK-35404",
        "meta_object_id": "2025-253T",
        "meta_epoch": "2025-12-04T13:24:23.447808",
        "meta_mean_motion": 15.50567443,
        "meta_eccentricity": 0.00014151,
        "meta_inclination": 42.9972,
        "meta_ra_of_asc_node": 32.5133,
        "meta_arg_of_pericenter": 288.46,
        "meta_mean_anomaly": 71.6106,
        "meta_ephemeris_type": 0,
        "meta_classification_type": "U",
        "meta_norad_cat_id": 66336,
        "meta_element_set_no": 999,
        "meta_rev_at_epoch": 566,
        "meta_bstar": 0.0026145533,
        "meta_mean_motion_dot": 0.00156074,
        "meta_mean_motion_ddot": 0,
        "tle_line1": "1 66336U 25253T   25338.55860472  .00156074  00000+0  26146-2 0  9992",
        "tle_line2": "2 66336  42.9972  32.5133 0001415 288.4600  71.6106 15.50567443  5663"
      },
      "geometry": {
        "type": "Point",
        "coordinates": [
          145.81372779387775,
          40.110518853009
        ]
      }
    }
  ]
}